SL-16 R/B               
1 19120U 88039B   24069.58271173  .00000027  00000+0  35527-4 0  9990
2 19120  71.0153 172.1066 0021219  14.1496 346.0218 14.19384568854779
COSMOS 1953             
1 19210U 88050A   24069.53893358  .00009051  00000+0  50259-3 0  9997
2 19210  82.5180 164.4741 0016313 152.6203 207.5892 15.13485652926784
SL-8 R/B                
1 19257U 88053B   24069.62720169  .00000435  00000+0  15196-3 0  9998
2 19257  74.0497  17.3337 0019754  15.8139 161.5461 14.38080303871611
COSMOS 1975             
1 19573U 88093A   24069.58340897  .00005482  00000+0  31113-3 0  9998
2 19573  82.5258 121.8131 0015193 196.9101 163.1625 15.12653531908452
SL-14 R/B               
1 19574U 88093B   24069.56598373  .00000819  00000+0  94592-4 0  9991
2 19574  82.5349   6.7202 0019758 294.2838 242.9087 14.84290062892672
SL-16 R/B               
1 19650U 88102B   24069.49444986 -.00000176  00000+0 -65184-4 0  9992
2 19650  70.9978 247.6740 0012784  34.7341 325.4614 14.15949567823523
INTERCOSMOS 24          
1 20261U 89080A   24069.49942376  .00002696  00000+0  79848-3 0  9992
2 20261  82.6062 218.8130 1196392 185.0137 173.8034 12.57706366574933
SL-14 R/B               
1 20262U 89080C   24069.33228550  .00000491  00000+0  14036-3 0  9996
2 20262  82.5891 281.9458 1234575  53.2997 317.5245 12.49606623568898
DELTA 1 R/B             
1 20323U 89089B   24069.58566716  .00000729  00000+0  19460-3 0  9999
2 20323  97.1064  19.8020 0068961 266.0315  93.2997 14.49329298789927
ARIANE 40 R/B           
1 20443U 90005H   24069.44727503  .00000502  00000+0  17713-3 0  9998
2 20443  98.4044 137.0807 0009463 233.9153 126.1159 14.38814367787752
DELTA 2 R/B(1)          
1 20453U 90008B   24069.49803772  .00017344  00000+0  70191-3 0  9991
2 20453  35.6205  80.7569 0217181 246.0445 111.7393 15.04877519814473
COSMOS 2058             
1 20465U 90010A   24069.38467957  .00005695  00000+0  42597-3 0  9991
2 20465  82.4866  41.1517 0012078 288.8711  71.1205 15.02537616832235
SL-14 R/B               
1 20466U 90010B   24069.50457472  .00000895  00000+0  10876-3 0  9999
2 20466  82.5010 232.5155 0020191 180.7866 179.3320 14.82278106820260
SL-14 R/B               
1 20511U 90018B   24069.57141917  .00000654  00000+0  81483-4 0  9995
2 20511  82.5251 184.9353 0016006 337.2766  22.7737 14.80903473814475
HST                     
1 20580U 90037B   24069.31870672  .00006696  00000+0  32735-3 0  9998
2 20580  28.4679 293.4724 0002993  30.3863 329.6903 15.16236594661850
SL-16 R/B               
1 20625U 90046B   24069.33569601 -.00000009  00000+0  19908-4 0  9998
2 20625  71.0011  31.5528 0015604 326.3738  33.6393 14.14814402745089
COSMOS 2084             
1 20663U 90055A   24069.04538465  .00004420  00000+0  34002-3 0  9993
2 20663  62.7912 294.2284 0121885 110.8107 250.6095 14.97484137826562
SL-6 R/B(2)             
1 20666U 90055D   24069.53202572  .00004548  00000+0  36922-3 0  9991
2 20666  62.7836 206.2776 0099621 133.0121 227.9377 14.97262808828600
SL-8 R/B                
1 20775U 90078B   24069.54392608  .00014781  00000+0  61632-3 0  9994
2 20775  82.9222 171.7032 0485063 252.9964 101.7560 14.56244804701806
SL-8 R/B                
1 21088U 91006B   24069.53914654  .00000105  00000+0  90816-4 0  9996
2 21088  82.9470 353.1614 0021183 281.4772 259.4180 13.77324094663554
OKEAN-3                 
1 21397U 91039A   24069.63078890  .00003522  00000+0  30033-3 0  9999
2 21397  82.5218 320.3593 0014928 288.6566  71.3036 14.97382447755499
COSMOS 2151             
1 21422U 91042A   24069.48078209  .00003066  00000+0  27628-3 0  9998
2 21422  82.4961  65.4176 0013724   8.8944 351.2518 14.95212338753886
SL-14 R/B               
1 21423U 91042B   24069.41378028  .00000821  00000+0  10359-3 0  9993
2 21423  82.4967 184.4347 0018663 117.4158 242.8956 14.80632691744968
ERS-1                   
1 21574U 91050A   24069.46566538  .00000460  00000+0  16520-3 0  9994
2 21574  98.7730  58.9458 0031982 205.4553 154.5060 14.38415147710716
ARIANE 40 R/B           
1 21610U 91050F   24069.42838759  .00000572  00000+0  18850-3 0  9990
2 21610  98.3016 134.1827 0004259 118.1117 242.0503 14.41719061713725
INTERCOSMOS 25          
1 21819U 91086A   24069.38809424  .00001534  00000+0  30868-3 0  9994
2 21819  82.6116  30.3265 1501586 247.0419  96.5611 12.08397726408341
SL-8 R/B                
1 21876U 92008B   24069.46938091  .00000190  00000+0  18040-3 0  9999
2 21876  82.9223  90.7605 0035145  16.4574  91.8153 13.75800840609002
SL-8 R/B                
1 21938U 92020B   24069.52288257  .00000107  00000+0  95013-4 0  9995
2 21938  82.9340 336.0250 0029139 173.1753   5.6368 13.75394161600757
COSMOS 2219             
1 22219U 92076A   24069.51753879 -.00000195  00000+0 -77979-4 0  9995
2 22219  71.0580 104.2004 0020479 240.0889 119.8199 14.13832174615164
SL-16 R/B               
1 22220U 92076B   24069.38440860  .00000360  00000+0  20411-3 0  9995
2 22220  70.9993 286.5042 0011294 135.6535  36.3707 14.16631577618393
COSMOS 2221             
1 22236U 92080A   24069.49683898  .00002842  00000+0  28353-3 0  9999
2 22236  82.5025 255.7957 0016793 116.5205 243.7738 14.91123644671772
SL-16 R/B               
1 22285U 92093B   24069.45695252  .00000250  00000+0  15306-3 0  9995
2 22285  71.0200  96.9896 0005530 317.2262  42.8430 14.15234519609836
COSMOS 2228             
1 22286U 92094A   24069.46859480  .00004049  00000+0  40026-3 0  9990
2 22286  82.5194 213.6041 0019053 231.0976 128.8545 14.91562679666982
SL-16 R/B               
1 22566U 93016B   24069.35790498  .00000084  00000+0  67611-4 0  9992
2 22566  71.0075 308.8800 0010675 342.8484  17.2277 14.15108960598847
COSMOS 2242             
1 22626U 93024A   24069.48138702  .00003263  00000+0  32485-3 0  9998
2 22626  82.5175 242.3647 0016928 232.4347 127.5335 14.91252513671358
SL-16 R/B               
1 22803U 93059B   24069.47511180 -.00000091  00000+0 -21409-4 0  9990
2 22803  70.9888 110.7626 0019415 246.2435 113.6653 14.17002093576084
ARIANE 40 R/B           
1 22830U 93061H   24069.43631259  .00000389  00000+0  16120-3 0  9990
2 22830  98.5815 138.2072 0009732 282.7975  77.2120 14.32011434589551
COSMOS 2278             
1 23087U 94023A   24069.51570542  .00000074  00000+0  63733-4 0  9994
2 23087  71.0504 262.4161 0006922  58.2367 301.9429 14.14049238541577
SL-16 R/B               
1 23088U 94023B   24069.49723062  .00000164  00000+0  10949-3 0  9999
2 23088  71.0009 164.1597 0004984 304.3625  55.7026 14.14823233542806
SL-16 R/B               
1 23343U 94074B   24069.62871905  .00000671  00000+0  10009-3 0  9994
2 23343  97.8023 115.8171 0008151  77.7400  85.2207 14.77890156579351
SL-16 R/B               
1 23405U 94077B   24069.47958758 -.00000167  00000+0 -60873-4 0  9998
2 23405  70.9810  88.4995 0004035 231.5856 128.4904 14.15369177512905
ARIANE 40+ R/B          
1 23561U 95021B   24069.63012729  .00000434  00000+0  15561-3 0  9996
2 23561  98.5381 136.6463 0007398 158.2319   7.6807 14.38730766514225
SL-16 R/B               
1 23705U 95058B   24069.31070666  .00000382  00000+0  22044-3 0  9991
2 23705  71.0206 273.4670 0011813 161.8678 198.2868 14.15293642464503
SL-16 R/B               
1 24298U 96051B   24069.51358059 -.00000120  00000+0 -38746-4 0  9999
2 24298  70.8120 279.2447 0014451 138.2717 221.9508 14.12497799418546
ORBVIEW 2 (SEASTAR)     
1 24883U 97037A   24069.40165026  .00000583  00000+0  22348-3 0  9993
2 24883  98.7568 207.8616 0003012  65.0112 295.1384 14.34394545403732
SL-16 R/B               
1 25400U 98043G   24069.53653639  .00000114  00000+0  66670-4 0  9990
2 25400  98.7357  10.8827 0009494 340.4733  19.6081 14.25709591334938
SL-16 R/B               
1 25407U 98045B   24068.96829539  .00000344  00000+0  19881-3 0  9995
2 25407  71.0099 278.0353 0005661  49.2332 310.9282 14.15977956323653
ISS (ZARYA)             
1 25544U 98067A   24069.63738729  .00013857  00000+0  25229-3 0  9992
2 25544  51.6415  88.7723 0005822 345.2173 152.1479 15.49767933443117
CZ-4B R/B               
1 25732U 99025C   24069.40768205  .00000127  00000+0  83383-4 0  9995
2 25732  98.7664 115.8819 0036178 282.1440  93.4167 14.17924692284661
OKEAN-O                 
1 25860U 99039A   24069.38197106  .00001145  00000+0  16536-3 0  9991
2 25860  98.0505 121.8722 0001439 115.0104 245.1256 14.78160859326412
SL-16 R/B               
1 25861U 99039B   24069.37121530  .00000961  00000+0  13440-3 0  9995
2 25861  98.1034 114.5446 0016600 100.6327 259.6754 14.79860452328777
DELTA 2 R/B             
1 25876U 99041E   24069.44307082  .00003042  00000+0  54023-3 0  9995
2 25876  51.7648 329.6580 0519516 359.4589   0.5721 14.07780541260004
HELIOS 1B               
1 25977U 99064A   24069.19454959  .00001348  00000+0  16860-3 0  9994
2 25977  98.2606 297.4387 0000240  22.5800 337.5423 14.84062338576785
TERRA                   
1 25994U 99068A   24069.56494296  .00000677  00000+0  15180-3 0  9994
2 25994  98.0596 135.9461 0001303 355.5157 110.0718 14.59591700288518
SL-16 R/B               
1 26070U 00006B   24069.50161757  .00000098  00000+0  74538-4 0  9991
2 26070  71.0029 192.9458 0018002 219.4052 140.5763 14.15611502245214
TITAN 4B R/B            
1 26474U 00047B   24069.28707785  .00004136  00000+0  32518-3 0  9994
2 26474  67.9918 281.7908 0046757 143.1693 217.2680 15.01033477282960
ENVISAT                 
1 27386U 02009A   24069.50102810  .00000246  00000+0  94051-4 0  9999
2 27386  98.2704  34.1218 0001394  88.2839  22.2897 14.38515872154174
IDEFIX & ARIANE 42P R/B 
1 27422U 02021B   24069.58771086  .00000433  00000+0  18436-3 0  9999
2 27422  98.5194   9.3197 0012042 171.7013 188.4371 14.29990277139637
AQUA                    
1 27424U 02022A   24069.60981576  .00001511  00000+0  33216-3 0  9993
2 27424  98.3200  18.6965 0002113  74.3478  37.4694 14.58950415162158
